H-2A R/B                
1 27601U 02056E   17096.85583299  .00000038  00000-0  28873-4 0  9994
2 27601  98.3824 167.0965 0072996 146.2806 344.2464 14.31772283747605
CZ-4B R/B               
1 28059U 03049C   17096.79862118  .00000017  00000-0  15946-4 0  9992
2 28059  98.5717 341.2799 0051294 104.7196 297.4140 14.52481634713328
CZ-2C R/B               
1 28222U 04012C   17096.89643918  .00001254  00000-0  80833-4 0  9992
2 28222  97.5173  54.7699 0050124  70.8594 317.6267 15.09121476709829
SL-16 R/B               
1 28353U 04021B   17096.84979898 -.00000260  00000-0 -11124-3 0  9995
2 28353  71.0002 228.0697 0007008 295.1727  64.8668 14.14187273662061
CZ-2C R/B               
1 28480U 04046B   17096.94149455  .00000005  00000-0  17050-4 0  9992
2 28480  98.1921 197.7346 0143220  75.0118  19.8542 14.25632177644062
ARIANE 5 R/B            
1 28499U 04049H   17096.86417691  .00000110  00000-0  20818-4 0  9999
2 28499  98.0807 179.4620 0093860  86.0586  49.3275 14.79800074663447
CZ-2D R/B               
1 28738U 05024B   17096.68402671  .00000523  00000-0  35073-4 0  9998
2 28738  97.5055 134.9374 0010765 247.9235 112.0852 15.11051705645014
SUZAKU (ASTRO-EII)      
1 28773U 05025A   17096.28110815  .00001729  00000-0  84268-4 0  9999
2 28773  31.3836  42.6751 0004762 342.8755  17.1730 15.15640416646458
ALOS (DAICHI)           
1 28931U 06002A   17096.97692877  .00000149  00000-0  38170-4 0  9996
2 28931  97.8503 127.8721 0001832 123.4525 236.6853 14.62333141597058
H-2A R/B                
1 28932U 06002B   17096.89636347  .00000212  00000-0  26102-4 0  9991
2 28932  98.2071  16.9186 0089926 184.2593 221.7207 14.91297198607072
AKARI (ASTRO-F)         
1 28939U 06005A   17096.81494851  .00003893  00000-0  12154-3 0  9994
2 28939  98.2570 290.2850 0109185  74.1330 287.1910 15.28232944602211
RESURS-DK 1             
1 29228U 06021A   17096.92268815  .00000227  00000-0  24630-4 0  9996
2 29228  69.9342 279.3851 0001603  95.0004 265.1339 15.02122747597394
GENESIS 1               
1 29252U 06029A   17096.70612845  .00000712  00000-0  46391-4 0  9990
2 29252  64.5045 158.9456 0009052 304.3820 203.4897 15.16664768590995
CZ-4B R/B               
1 29507U 06046C   17096.96322713  .00001045  00000-0  87330-4 0  9990
2 29507  97.7898 104.4169 0043396 122.0582 238.4867 15.00024750570311
CZ-2C R/B               
1 31114U 07010B   17096.85215147  .00000009  00000-0  23114-4 0  9998
2 31114  98.4046   3.0059 0060877  63.1990 297.5396 14.19237561517380
COSMO-SKYMED 1          
1 31598U 07023A   17096.88253188  .00000407  00000-0  57649-4 0  9990
2 31598  97.8800 281.6713 0001505  94.6549 265.4845 14.82157566531880
GENESIS 2               
1 31789U 07028A   17096.82184908  .00000829  00000-0  52977-4 0  9991
2 31789  64.5047 196.2623 0037466 230.3766 129.4048 15.15946748538091
COSMOS 2428             
1 31792U 07029A   17096.87843624 -.00000037  00000-0  59045-5 0  9994
2 31792  70.9139 201.8302 0006240   3.3229 356.7931 14.12254405503910
SL-16 R/B               
1 31793U 07029B   17096.80882443 -.00000192  00000-0 -75380-4 0  9992
2 31793  70.9751 179.0951 0002691 263.2813 227.5972 14.14374114504585
KORONAS-FOTON           
1 33504U 09003A   17096.69391520  .00000406  00000-0  20081-4 0  9990
2 33504  82.4408 304.0244 0019489   1.7710 358.3586 15.14750670450550
TIANGONG 1              
1 37820U 11053A   17096.84046069  .00026772  00000-0  17230-3 0  9990
2 37820  42.7600 275.8336 0019612 291.9256 202.0438 15.75356687316707
CZ-3B R/B               
1 38253U 12018D   17096.82269151  .01206460  39127-5  59701-3 0  9991
2 38253  54.8867  39.3426 2083536 150.2001 223.5950 11.60199014119340
H-2A R/B                
1 38341U 12025E   17096.81335464  .00000196  00000-0  30752-4 0  9993
2 38341  98.4387 169.8306 0056503  29.1937 331.2413 14.83536959264218
CUSAT 2 & FALCON 9 R/B  
1 39271U 13055G   17096.94224341  .00010505  00000-0  26984-3 0  9991
2 39271  80.9670  72.4531 0638830  52.9714 312.8175 14.36072049182398
ALOS-2                  
1 39766U 14029A   17096.76231446  .00000103  00000-0  20713-4 0  9994
2 39766  97.9181 195.1143 0001951  99.4712 260.6686 14.79474508155048
ASTRO-H (HITOMI)        
1 41337U 16012A   17096.77278157  .00000390  00000-0  25064-4 0  9998
2 41337  31.0052 211.3226 0012444  55.0635 305.1168 14.98272137 62205
